[{"OBJECT_NAME":"PRAETORIAN SDA_614","OBJECT_ID":"2025-203N","EPOCH":"2026-03-09T14:45:09.374112","MEAN_MOTION":13.84765738,"ECCENTRICITY":0.0008407,"INCLINATION":81.2981,"RA_OF_ASC_NODE":102.9205,"ARG_OF_PERICENTER":101.1644,"MEAN_ANOMALY":259.0459,"EPHEMERIS_TYPE":0,"CLASSIFICATION_TYPE":"U","NORAD_CAT_ID":65577,"ELEMENT_SET_NO":999,"REV_AT_EPOCH":2493,"BSTAR":5.1996e-5,"MEAN_MOTION_DOT":7.1e-7,"MEAN_MOTION_DDOT":0},{"OBJECT_NAME":"THORAD AGENA D DEB","OBJECT_ID":"1970-025PZ","EPOCH":"2026-03-09T13:44:24.356832","MEAN_MOTION":14.00682499,"ECCENTRICITY":0.01424192,"INCLINATION":98.75,"RA_OF_ASC_NODE":287.6081,"ARG_OF_PERICENTER":214.4166,"MEAN_ANOMALY":205.9219,"EPHEMERIS_TYPE":0,"CLASSIFICATION_TYPE":"U","NORAD_CAT_ID":19391,"ELEMENT_SET_NO":999,"REV_AT_EPOCH":90514,"BSTAR":0.0012903278,"MEAN_MOTION_DOT":2.056e-5,"MEAN_MOTION_DDOT":0}]
